#cP2021 10  6  0  0  0.00000000      96 ORBIT IGb14 HLM  IGS
## 2178 259200.00000000   900.00000000 59493 0.0000000000000
+   32   G01G02G03G04G05G06G07G08G09G10G11G12G13G14G15G16G17
+        G18G19G20G21G22G23G24G25G26G27G28G29G30G31G32  0  0
+          0  0  0  0  0  0  0  0  0  0  0  0  0  0  0  0  0
+          0  0  0  0  0  0  0  0  0  0  0  0  0  0  0  0  0
+          0  0  0  0  0  0  0  0  0  0  0  0  0  0  0  0  0
++         2  1  2  2  1  1  2  2  2  2  3  1  2  2  2  2  2
++         2  2  1  2  1  2  2  1  1  2  2  2  2  2  1  0  0
++         0  0  0  0  0  0  0  0  0  0  0  0  0  0  0  0  0
++         0  0  0  0  0  0  0  0  0  0  0  0  0  0  0  0  0
++         0  0  0  0  0  0  0  0  0  0  0  0  0  0  0  0  0
%c G  cc GPS ccc cccc cccc cccc cccc ccccc ccccc ccccc ccccc
%c cc cc ccc ccc cccc cccc cccc cccc ccccc ccccc ccccc ccccc
%f  1.2500000  1.025000000  0.00000000000  0.000000000000000
%f  0.0000000  0.000000000  0.00000000000  0.000000000000000
%i    0    0    0    0      0      0      0      0         0
%i    0    0    0    0      0      0      0      0         0
/* FINAL ORBIT COMBINATION FROM WEIGHTED AVERAGE OF:        
/* cod emr esa gfz grg jpl mit ngs sio                      
/* REFERENCED TO IGS TIME (IGST) AND TO WEIGHTED MEAN POLE: 
/* PCV:IGS14_2178 OL/AL:FES2004  NONE     Y  ORB:CMB CLK:CMB
*  2021 10  6 13 30  0.00000000
PG01  12133.775548  13330.950296 -19895.920232    547.070188  5  4  5  68       
PG02  12503.636051 -14308.284281  19247.738548   -636.089422  6  4  4  73       
PG03  12367.423420  23530.762134  -1464.755691   -315.000320  4  4  4  62       
PG04   4691.172605  17744.579309  19176.289195   -203.933121  4  6  5  83       
PG05  -2738.807547 -22441.153439  13644.956031    -56.766445  4  2  2  69       
PG06  23911.725841  -6376.044446   9779.403558     88.858254  6  4  5  86       
PG07  24344.425445   6826.441350   9282.963145    257.882694  4  5  1  96       
PG08  -4047.467437  23489.355632 -11389.374750    -39.104996  5  4  2  81       
PG09  13711.926833   6881.833111  21611.188808   -361.663167  5  6  5  82       
PG10 -17092.482652  -1919.862691 -20197.834212   -218.188428  5  5  4  92       
PG11  14767.216367 -12054.498627  18478.105984     20.807150  8  9  6  18       
PG12  -9925.800159 -24603.818935  -2586.555875   -107.642935  4  2  3  85       
PG13  12192.889914 -22715.039452  -6194.427279    195.674676  5  3  4 102       
PG14  17145.662153   1997.509134 -20200.025342    -13.467700  7  5  6  56       
PG15    556.238569 -23771.132934 -11871.027807   -115.935552  7  3  4 100       
PG16  -3011.076086  20256.426879  16406.271813   -402.553043  7  4  2  68       
PG17  18508.458035  -6892.381124 -17330.173675    515.233932  6  4  4  56       
PG18 -24952.075612  -5601.177192   7345.137283    313.743983  8  7  4  61       
PG19  19623.327004 -13895.501244 -11365.330995     62.308213  7  5  5 104       
PG20   6058.457797 -16147.269712  20234.833090    518.775131  5  3  3  64       
PG21   3543.240026  14664.668853 -21203.371721    146.303230  4  3  5  84       
PG22   8790.066193  23449.092446  -8980.362169   -495.854580  2  2  5  60       
PG23 -18891.980605 -12992.057152 -13496.986628     48.486681  6  5  4  83       
PG24  -7761.395980 -14905.214631 -20907.008779    248.883909  3  5  5  64       
PG25 -16691.245335 -19720.191361   6488.412312    220.014349  4  1  4  82       
PG26 -11984.322190  10177.588570  21329.789731    141.983361  2     1 100       
PG27 -11807.349827  23468.455297  -2295.156117   -202.634808  4  5  2  73       
PG28  13852.049979  -5123.531939 -21525.454138    487.668887  7  5  4  92       
PG29 -10465.378362 -10592.995485  21944.434061   -422.276498  4  4  3  69       
PG30  26597.239116   -829.294225  -1990.505305   -479.822003  7  4  4 109       
PG31 -23110.916022   7347.930182  11262.409899   -143.529410  8  7  4  94       
PG32 -18596.654776  10769.916776 -15377.284955     -7.369194  2  6  2  95       
*  2021 10  6 13 45  0.00000000
PG01   9863.200232  13429.032442 -21038.404543    547.060400  5  3  5  61       
PG02  14494.223551 -14404.885616  17666.590558   -636.091205  6  4  5  71       
PG03  12015.419702  23375.398159  -4308.534668   -315.012955  4  4  4  66       
PG04   3510.811951  19498.218563  17659.942501   -203.932795  4  6  4  85       
PG05  -1608.179311 -21136.140931  15737.941078    -56.767654  4  2  2  77       
PG06  24870.277577  -6237.053020   7098.247089     88.865425  6  4  5  86       
PG07  23208.702720   7058.270125  11743.434932    257.888431  3  5  1  74       
PG08  -4787.568776  24418.288047  -8834.887595    -39.106263  5  4  3  93       
PG09  12564.882825   9084.732736  21492.586156   -361.663352  4  6  4  76       
PG10 -18206.665823  -3878.848440 -18935.588013   -218.195671  5  5  3  83       
PG11  16784.233908 -11850.588663  16812.857993     20.807762  8 10  6  26       
PG12  -9542.681468 -24322.394210  -5407.910347   -107.647869  4  2  3  91       
PG13  12697.491536 -23008.308191  -3384.134870    195.679751  4  3  4  99       
PG14  18146.433568   4007.938406 -18995.745571    -13.474618  6  5  6  47       
PG15   1278.502604 -24760.405284  -9436.091736   -115.932874  7  3  4 105       
PG16  -4071.165949  18510.568075  18162.644246   -402.559038  8  4     74       
PG17  17478.320502  -5000.599931 -18933.740564    515.239067  6  5  4  64       
PG18 -23965.257126  -5816.296173   9978.391072    313.739566  8  8  4  66       
PG19  18972.599075 -12643.057067 -13753.508234     62.312551  7  5  5  72       
PG20   7647.671633 -14392.746169  20981.683486    518.774976  5  3  3  76       
PG21    978.571217  14925.475154 -21243.474258    146.304451  3  3  5  78       
PG22   7845.122109  22677.547715 -11433.587120   -495.846221  2  2  5  71       
PG23 -19499.755000 -14271.263217 -11136.371206     48.482443  6  5  4  73       
PG24  -5409.179850 -15192.737051 -21404.571366    248.889949  4  5  6  87       
PG25 -16814.017093 -20363.069507   3731.844628    220.019871  4     4  57       
PG26 -13394.869557   8156.696112  21384.694210    141.987060  2     2  90       
PG27 -12058.585866  23421.699180    608.629732   -202.639382  4  5  3  86       
PG28  14958.240819  -2812.881605 -21199.004015    487.662638  7  5  4 101       
PG29  -9099.647201 -12671.288484  21441.216776   -422.281548  4  4  3  76       
PG30  26675.131627   -525.275418    802.067584   -479.825210  7  4  5 100       
PG31 -24258.088852   7146.824911   8761.605507   -143.531354  8  7  4 105       
PG32 -17877.351805   9008.621720 -17251.681871     -7.372754  2  6  2  74       
*  2021 10  6 14  0  0.00000000
PG01   7492.340941  13665.653231 -21829.940670    547.050654  5  4  4  55       
PG02  16292.098381 -14576.512909  15796.432410   -636.092752  6  4  5  79       
PG03  11473.533952  22979.834541  -7078.774129   -315.025569  4  3  5  60       
PG04   2508.253084  21142.504544  15839.012824   -203.932503  4  6  4  91       
PG05   -276.958274 -19713.063568  17555.168513    -56.768632  4  2     60       
PG06  25525.962861  -6124.053454   4295.535842     88.872596  5  4  5  94       
PG07  21825.724125   7369.590467  14010.456063    257.894692  3  6  2  86       
PG08  -5357.778391  25110.168027  -6125.664158    -39.108014  5  4  3  80       
PG09  11545.136132  11311.576826  21001.720362   -361.663461  4  6  4  79       
PG10 -19329.806264  -5640.619067 -17347.240270   -218.202912  4  5  3  92       
PG11  18604.206920 -11745.389924  14857.897457     20.808449  9 11  5  40       
PG12  -8985.150276 -23793.957150  -8137.465050   -107.653054  5  3  2  66       
PG13  13013.966301 -23055.168186   -515.191978    195.684566  3  4  3 100       
PG14  19165.275022   5833.932453 -17465.108823    -13.481562  6  5  6  70       
PG15   1869.558426 -25514.294781  -6838.206710   -115.930325  7  3  4 103       
PG16  -5312.161241  16665.261254  19595.326609   -402.564771  8  4     84       
PG17  16473.335985  -2907.352380 -20199.778283    515.243937  6  5  4  90       
PG18 -22703.653735  -6104.464375  12440.735372    313.735130  7  8  4  92       
PG19  18260.170048 -11139.157540 -15906.769142     62.316899  7  5  5  73       
PG20   9366.686408 -12669.849788  21367.823769    518.774451  5  4  3  77       
PG21  -1557.369307  15311.047230 -20893.133068    146.306005  3  4  5  79       
PG22   6687.531677  21751.893627 -13690.475168   -495.837708  2  2  5  66       
PG23 -20008.455535 -15293.859108  -8585.097497     48.478119  6  5  4  91       
PG24  -3035.302733 -15601.435846 -21543.593637    248.896020  5  5  6  95       
PG25 -16789.975882 -20740.473820    911.806157    220.025377  4  1  4  74       
PG26 -14891.280319   6220.757012  21069.927064    141.990643  2     2  95       
PG27 -12174.004993  23086.500516   3501.670876   -202.643948  4  5  3  90       
PG28  16153.508805   -614.520390 -20488.087443    487.656299  7  4  5 106       
PG29  -7888.992414 -14754.027143  20567.219892   -422.286354  4  4  2  66       
PG30  26455.888780   -205.307057   3581.044210   -479.828436  7  5  6 110       
PG31 -25124.693890   6988.436291   6113.391496   -143.533130  8  7  4 110       
PG32 -17167.765403   7034.598386 -18824.698496     -7.376341  2  5  3  88       
EOF
